{
  "type": "FeatureCollection",
  "features": [
    {
      "type": "Feature",
      "properties": {
        "norad_id": 66767,
        "name": "TRANSPORTER-15DF",
        "group": "last-30-days",
        "lat": 51.350378537901015,
        "lon": -100.07999487614215,
        "alt_km": 505.0309258073539,
        "timestamp": "2025-12-24T22:42:20.745733+00:00",
        "meta_object_name": "TRANSPORTER-15DF",
        "meta_object_id": "2025-276DF",
        "meta_epoch": "2025-12-24T06:19:38.955648",
        "meta_mean_motion": 15.18339393,
        "meta_eccentricity": 0.00021169,
        "meta_inclination": 97.4367,
        "meta_ra_of_asc_node": 69.8486,
        "meta_arg_of_pericenter": 88.7226,
        "meta_mean_anomaly": 271.4251,
        "meta_ephemeris_type": 0,
        "meta_classification_type": "U",
        "meta_norad_cat_id": 66767,
        "meta_element_set_no": 999,
        "meta_rev_at_epoch": 387,
        "meta_bstar": 0.00041878194,
        "meta_mean_motion_dot": 8.535e-05,
        "meta_mean_motion_ddot": 0,
        "tle_line1": "1 66767U 25276DF  25358.26364532  .00008535  00000+0  41878-3 0  9999",
        "tle_line2": "2 66767  97.4367  69.8486 0002116  88.7226 271.4251 15.18339393  3879"
      },
      "geometry": {
        "type": "Point",
        "coordinates": [
          -100.07999487614215,
          51.350378537901015
        ]
      }
    },
    {
      "type": "Feature",
      "properties": {
        "norad_id": 66768,
        "name": "TRANSPORTER-15DG",
        "group": "last-30-days",
        "lat": 38.508123834078,
        "lon": -103.51446764672478,
        "alt_km": 506.7316376692179,
        "timestamp": "2025-12-24T22:42:20.745742+00:00",
        "meta_object_name": "TRANSPORTER-15DG",
        "meta_object_id": "2025-276DG",
        "meta_epoch": "2025-12-24T04:41:27.523680",
        "meta_mean_motion": 15.18542786,
        "meta_eccentricity": 0.00022935,
        "meta_inclination": 97.4354,
        "meta_ra_of_asc_node": 69.783,
        "meta_arg_of_pericenter": 77.9058,
        "meta_mean_anomaly": 282.2433,
        "meta_ephemeris_type": 0,
        "meta_classification_type": "U",
        "meta_norad_cat_id": 66768,
        "meta_element_set_no": 999,
        "meta_rev_at_epoch": 386,
        "meta_bstar": 0.0005851439,
        "meta_mean_motion_dot": 0.00012028,
        "meta_mean_motion_ddot": 0,
        "tle_line1": "1 66768U 25276DG  25358.19545745  .00012028  00000+0  58514-3 0  9996",
        "tle_line2": "2 66768  97.4354  69.7830 0002293  77.9058 282.2433 15.18542786  3860"
      },
      "geometry": {
        "type": "Point",
        "coordinates": [
          -103.51446764672478,
          38.508123834078
        ]
      }
    },
    {
      "type": "Feature",
      "properties": {
        "norad_id": 66769,
        "name": "TRANSPORTER-15DH",
        "group": "last-30-days",
        "lat": 44.20586885191228,
        "lon": -102.1581449961475,
        "alt_km": 505.3385245896616,
        "timestamp": "2025-12-24T22:42:20.745753+00:00",
        "meta_object_name": "TRANSPORTER-15DH",
        "meta_object_id": "2025-276DH",
        "meta_epoch": "2025-12-24T06:17:47.113440",
        "meta_mean_motion": 15.184189,
        "meta_eccentricity": 0.00027187,
        "meta_inclination": 97.4415,
        "meta_ra_of_asc_node": 69.8653,
        "meta_arg_of_pericenter": 104.726,
        "meta_mean_anomaly": 255.4276,
        "meta_ephemeris_type": 0,
        "meta_classification_type": "U",
        "meta_norad_cat_id": 66769,
        "meta_element_set_no": 999,
        "meta_rev_at_epoch": 387,
        "meta_bstar": 0.00030879771,
        "meta_mean_motion_dot": 6.289e-05,
        "meta_mean_motion_ddot": 0,
        "tle_line1": "1 66769U 25276DH  25358.26235085  .00006289  00000+0  30880-3 0  9996",
        "tle_line2": "2 66769  97.4415  69.8653 0002718 104.7260 255.4276 15.18418900  3877"
      },
      "geometry": {
        "type": "Point",
        "coordinates": [
          -102.1581449961475,
          44.20586885191228
        ]
      }
    },
    {
      "type": "Feature",
      "properties": {
        "norad_id": 66770,
        "name": "TRANSPORTER-15DJ",
        "group": "last-30-days",
        "lat": 42.51957024042321,
        "lon": -102.56404235223685,
        "alt_km": 505.03731040482126,
        "timestamp": "2025-12-24T22:42:20.745765+00:00",
        "meta_object_name": "TRANSPORTER-15DJ",
        "meta_object_id": "2025-276DJ",
        "meta_epoch": "2025-12-24T03:07:31.859904",
        "meta_mean_motion": 15.18400722,
        "meta_eccentricity": 0.00033417,
        "meta_inclination": 97.4447,
        "meta_ra_of_asc_node": 69.7464,
        "meta_arg_of_pericenter": 119.8153,
        "meta_mean_anomaly": 240.3414,
        "meta_ephemeris_type": 0,
        "meta_classification_type": "U",
        "meta_norad_cat_id": 66770,
        "meta_element_set_no": 999,
        "meta_rev_at_epoch": 385,
        "meta_bstar": 0.00044014624,
        "meta_mean_motion_dot": 8.991e-05,
        "meta_mean_motion_ddot": 0,
        "tle_line1": "1 66770U 25276DJ  25358.13022986  .00008991  00000+0  44015-3 0  9995",
        "tle_line2": "2 66770  97.4447  69.7464 0003341 119.8153 240.3414 15.18400722  3852"
      },
      "geometry": {
        "type": "Point",
        "coordinates": [
          -102.56404235223685,
          42.51957024042321
        ]
      }
    },
    {
      "type": "Feature",
      "properties": {
        "norad_id": 66771,
        "name": "TRANSPORTER-15DK",
        "group": "last-30-days",
        "lat": 39.61902850873834,
        "lon": -103.2379401951751,
        "alt_km": 505.53777114741297,
        "timestamp": "2025-12-24T22:42:20.745775+00:00",
        "meta_object_name": "TRANSPORTER-15DK",
        "meta_object_id": "2025-276DK",
        "meta_epoch": "2025-12-24T04:41:42.902016",
        "meta_mean_motion": 15.18486027,
        "meta_eccentricity": 0.00030991,
        "meta_inclination": 97.4441,
        "meta_ra_of_asc_node": 69.8095,
        "meta_arg_of_pericenter": 112.2935,
        "meta_mean_anomaly": 247.8628,
        "meta_ephemeris_type": 0,
        "meta_classification_type": "U",
        "meta_norad_cat_id": 66771,
        "meta_element_set_no": 999,
        "meta_rev_at_epoch": 386,
        "meta_bstar": 0.00053410043,
        "meta_mean_motion_dot": 0.00010954,
        "meta_mean_motion_ddot": 0,
        "tle_line1": "1 66771U 25276DK  25358.19563544  .00010954  00000+0  53410-3 0  9993",
        "tle_line2": "2 66771  97.4441  69.8095 0003099 112.2935 247.8628 15.18486027  3865"
      },
      "geometry": {
        "type": "Point",
        "coordinates": [
          -103.2379401951751,
          39.61902850873834
        ]
      }
    },
    {
      "type": "Feature",
      "properties": {
        "norad_id": 66772,
        "name": "TRANSPORTER-15DL",
        "group": "last-30-days",
        "lat": 25.44227375899173,
        "lon": -105.88320622425216,
        "alt_km": 507.85174136436126,
        "timestamp": "2025-12-24T22:42:20.745785+00:00",
        "meta_object_name": "TRANSPORTER-15DL",
        "meta_object_id": "2025-276DL",
        "meta_epoch": "2025-12-24T04:38:05.915328",
        "meta_mean_motion": 15.18706689,
        "meta_eccentricity": 0.00030119,
        "meta_inclination": 97.4432,
        "meta_ra_of_asc_node": 69.8096,
        "meta_arg_of_pericenter": 99.715,
        "meta_mean_anomaly": 260.4425,
        "meta_ephemeris_type": 0,
        "meta_classification_type": "U",
        "meta_norad_cat_id": 66772,
        "meta_element_set_no": 999,
        "meta_rev_at_epoch": 386,
        "meta_bstar": 0.00057105262,
        "meta_mean_motion_dot": 0.00011792,
        "meta_mean_motion_ddot": 0,
        "tle_line1": "1 66772U 25276DL  25358.19312402  .00011792  00000+0  57105-3 0  9995",
        "tle_line2": "2 66772  97.4432  69.8096 0003011  99.7150 260.4425 15.18706689  3864"
      },
      "geometry": {
        "type": "Point",
        "coordinates": [
          -105.88320622425216,
          25.44227375899173
        ]
      }
    },
    {
      "type": "Feature",
      "properties": {
        "norad_id": 66773,
        "name": "TRANSPORTER-15DM",
        "group": "last-30-days",
        "lat": 33.03192791627288,
        "lon": -104.57736440363033,
        "alt_km": 506.78771454683374,
        "timestamp": "2025-12-24T22:42:20.745794+00:00",
        "meta_object_name": "TRANSPORTER-15DM",
        "meta_object_id": "2025-276DM",
        "meta_epoch": "2025-12-24T06:14:53.422656",
        "meta_mean_motion": 15.18544274,
        "meta_eccentricity": 0.00032511,
        "meta_inclination": 97.4428,
        "meta_ra_of_asc_node": 69.8717,
        "meta_arg_of_pericenter": 99.8547,
        "meta_mean_anomaly": 260.3055,
        "meta_ephemeris_type": 0,
        "meta_classification_type": "U",
        "meta_norad_cat_id": 66773,
        "meta_element_set_no": 999,
        "meta_rev_at_epoch": 387,
        "meta_bstar": 0.00052119048,
        "meta_mean_motion_dot": 0.00010705,
        "meta_mean_motion_ddot": 0,
        "tle_line1": "1 66773U 25276DM  25358.26034054  .00010705  00000+0  52119-3 0  9991",
        "tle_line2": "2 66773  97.4428  69.8717 0003251  99.8547 260.3055 15.18544274  3876"
      },
      "geometry": {
        "type": "Point",
        "coordinates": [
          -104.57736440363033,
          33.03192791627288
        ]
      }
    }
  ]
}